[{"OBJECT_NAME":"STARLINK-31067","OBJECT_ID":"2023-200V","EPOCH":"2026-03-09T22:00:01.999584","MEAN_MOTION":15.26754963,"ECCENTRICITY":0.00013862,"INCLINATION":42.9995,"RA_OF_ASC_NODE":167.4141,"ARG_OF_PERICENTER":275.4635,"MEAN_ANOMALY":216.7686,"EPHEMERIS_TYPE":0,"CLASSIFICATION_TYPE":"U","NORAD_CAT_ID":58608,"ELEMENT_SET_NO":999,"REV_AT_EPOCH":562,"BSTAR":-0.0003845601,"MEAN_MOTION_DOT":-0.00010565,"MEAN_MOTION_DDOT":0},{"OBJECT_NAME":"FLOCK 4G-1","OBJECT_ID":"2025-009BK","EPOCH":"2026-03-09T18:13:41.778912","MEAN_MOTION":15.27421081,"ECCENTRICITY":0.00031801,"INCLINATION":97.4059,"RA_OF_ASC_NODE":151.3158,"ARG_OF_PERICENTER":323.1401,"MEAN_ANOMALY":36.9619,"EPHEMERIS_TYPE":0,"CLASSIFICATION_TYPE":"U","NORAD_CAT_ID":62666,"ELEMENT_SET_NO":999,"REV_AT_EPOCH":6372,"BSTAR":0.00050653644,"MEAN_MOTION_DOT":0.00013534,"MEAN_MOTION_DDOT":0}]
